[{"OBJECT_NAME":"METEOSAT-11 (MSG-4)","OBJECT_ID":"2015-034A","EPOCH":"2026-03-04T09:02:38.798880","MEAN_MOTION":1.0026609,"ECCENTRICITY":0.00018032,"INCLINATION":2.9374,"RA_OF_ASC_NODE":71.6812,"ARG_OF_PERICENTER":270.6417,"MEAN_ANOMALY":324.8599,"EPHEMERIS_TYPE":0,"CLASSIFICATION_TYPE":"U","NORAD_CAT_ID":40732,"ELEMENT_SET_NO":999,"REV_AT_EPOCH":616,"BSTAR":0,"MEAN_MOTION_DOT":5.1e-7,"MEAN_MOTION_DDOT":0},{"OBJECT_NAME":"ELEKTRO-L 2","OBJECT_ID":"2015-074A","EPOCH":"2026-03-03T20:51:04.605984","MEAN_MOTION":1.00270829,"ECCENTRICITY":0.00034679,"INCLINATION":6.4296,"RA_OF_ASC_NODE":71.8188,"ARG_OF_PERICENTER":237.1165,"MEAN_ANOMALY":150.951,"EPHEMERIS_TYPE":0,"CLASSIFICATION_TYPE":"U","NORAD_CAT_ID":41105,"ELEMENT_SET_NO":999,"REV_AT_EPOCH":3745,"BSTAR":0,"MEAN_MOTION_DOT":-1.28e-6,"MEAN_MOTION_DDOT":0},{"OBJECT_NAME":"INSAT-3DR","OBJECT_ID":"2016-054A","EPOCH":"2026-03-04T15:00:10.558080","MEAN_MOTION":1.00272451,"ECCENTRICITY":0.00132243,"INCLINATION":0.0478,"RA_OF_ASC_NODE":96.4704,"ARG_OF_PERICENTER":185.395,"MEAN_ANOMALY":179.5257,"EPHEMERIS_TYPE":0,"CLASSIFICATION_TYPE":"U","NORAD_CAT_ID":41752,"ELEMENT_SET_NO":999,"REV_AT_EPOCH":3477,"BSTAR":0,"MEAN_MOTION_DOT":-8.8e-7,"MEAN_MOTION_DDOT":0},{"OBJECT_NAME":"HIMAWARI-9","OBJECT_ID":"2016-064A","EPOCH":"2026-03-04T13:32:38.721984","MEAN_MOTION":1.00272269,"ECCENTRICITY":0.00011863,"INCLINATION":0.0143,"RA_OF_ASC_NODE":179.2435,"ARG_OF_PERICENTER":190.2974,"MEAN_ANOMALY":136.7047,"EPHEMERIS_TYPE":0,"CLASSIFICATION_TYPE":"U","NORAD_CAT_ID":41836,"ELEMENT_SET_NO":999,"REV_AT_EPOCH":3416,"BSTAR":0,"MEAN_MOTION_DOT":-2.86e-6,"MEAN_MOTION_DDOT":0},{"OBJECT_NAME":"GOES 16","OBJECT_ID":"2016-071A","EPOCH":"2026-03-04T08:33:38.625984","MEAN_MOTION":1.00271047,"ECCENTRICITY":0.00025551,"INCLINATION":0.1377,"RA_OF_ASC_NODE":89.7852,"ARG_OF_PERICENTER":217.0177,"MEAN_ANOMALY":239.0082,"EPHEMERIS_TYPE":0,"CLASSIFICATION_TYPE":"U","NORAD_CAT_ID":41866,"ELEMENT_SET_NO":999,"REV_AT_EPOCH":3405,"BSTAR":0,"MEAN_MOTION_DOT":-1.02e-6,"MEAN_MOTION_DDOT":0},{"OBJECT_NAME":"FENGYUN 4A","OBJECT_ID":"2016-077A","EPOCH":"2026-03-04T03:11:38.798016","MEAN_MOTION":1.00279325,"ECCENTRICITY":0.00074647,"INCLINATION":2.0552,"RA_OF_ASC_NODE":81.415,"ARG_OF_PERICENTER":135.8137,"MEAN_ANOMALY":116.1229,"EPHEMERIS_TYPE":0,"CLASSIFICATION_TYPE":"U","NORAD_CAT_ID":41882,"ELEMENT_SET_NO":999,"REV_AT_EPOCH":3387,"BSTAR":0,"MEAN_MOTION_DOT":-3.69e-6,"MEAN_MOTION_DDOT":0},{"OBJECT_NAME":"CYGFM05","OBJECT_ID":"2016-078A","EPOCH":"2026-03-04T13:18:31.475808","MEAN_MOTION":15.51875455,"ECCENTRICITY":0.00070612,"INCLINATION":34.9567,"RA_OF_ASC_NODE":231.0511,"ARG_OF_PERICENTER":241.0281,"MEAN_ANOMALY":118.9734,"EPHEMERIS_TYPE":0,"CLASSIFICATION_TYPE":"U","NORAD_CAT_ID":41884,"ELEMENT_SET_NO":999,"REV_AT_EPOCH":51246,"BSTAR":0.000547967,"MEAN_MOTION_DOT":0.00034004,"MEAN_MOTION_DDOT":0},{"OBJECT_NAME":"CYGFM04","OBJECT_ID":"2016-078B","EPOCH":"2026-03-04T13:13:12.524160","MEAN_MOTION":15.55266754,"ECCENTRICITY":0.000612,"INCLINATION":34.933,"RA_OF_ASC_NODE":203.331,"ARG_OF_PERICENTER":275.3846,"MEAN_ANOMALY":84.618,"EPHEMERIS_TYPE":0,"CLASSIFICATION_TYPE":"U","NORAD_CAT_ID":41885,"ELEMENT_SET_NO":999,"REV_AT_EPOCH":51266,"BSTAR":0.00054394448,"MEAN_MOTION_DOT":0.00038215,"MEAN_MOTION_DDOT":0},{"OBJECT_NAME":"CYGFM02","OBJECT_ID":"2016-078C","EPOCH":"2026-03-04T14:06:16.902432","MEAN_MOTION":15.57532132,"ECCENTRICITY":0.00070823,"INCLINATION":34.9411,"RA_OF_ASC_NODE":200.0974,"ARG_OF_PERICENTER":277.0728,"MEAN_ANOMALY":82.919,"EPHEMERIS_TYPE":0,"CLASSIFICATION_TYPE":"U","NORAD_CAT_ID":41886,"ELEMENT_SET_NO":999,"REV_AT_EPOCH":51281,"BSTAR":0.0013695073,"MEAN_MOTION_DOT":0.00105694,"MEAN_MOTION_DDOT":0},{"OBJECT_NAME":"CYGFM01","OBJECT_ID":"2016-078D","EPOCH":"2026-03-04T13:59:45.662496","MEAN_MOTION":15.52312229,"ECCENTRICITY":0.00067358,"INCLINATION":34.9397,"RA_OF_ASC_NODE":232.6774,"ARG_OF_PERICENTER":234.1184,"MEAN_ANOMALY":125.8913,"EPHEMERIS_TYPE":0,"CLASSIFICATION_TYPE":"U","NORAD_CAT_ID":41887,"ELEMENT_SET_NO":999,"REV_AT_EPOCH":51241,"BSTAR":0.00054183071,"MEAN_MOTION_DOT":0.00034156,"MEAN_MOTION_DDOT":0},{"OBJECT_NAME":"CYGFM08","OBJECT_ID":"2016-078E","EPOCH":"2026-03-04T12:05:36.721536","MEAN_MOTION":15.53788064,"ECCENTRICITY":0.00081877,"INCLINATION":34.9432,"RA_OF_ASC_NODE":215.1277,"ARG_OF_PERICENTER":257.7536,"MEAN_ANOMALY":102.227,"EPHEMERIS_TYPE":0,"CLASSIFICATION_TYPE":"U","NORAD_CAT_ID":41888,"ELEMENT_SET_NO":999,"REV_AT_EPOCH":51264,"BSTAR":0.00058502766,"MEAN_MOTION_DOT":0.00038958,"MEAN_MOTION_DDOT":0},{"OBJECT_NAME":"CYGFM07","OBJECT_ID":"2016-078G","EPOCH":"2026-03-04T14:25:45.060672","MEAN_MOTION":15.54484346,"ECCENTRICITY":0.00066645,"INCLINATION":34.9455,"RA_OF_ASC_NODE":202.9662,"ARG_OF_PERICENTER":278.9406,"MEAN_ANOMALY":81.0563,"EPHEMERIS_TYPE":0,"CLASSIFICATION_TYPE":"U","NORAD_CAT_ID":41890,"ELEMENT_SET_NO":999,"REV_AT_EPOCH":51268,"BSTAR":0.00052875402,"MEAN_MOTION_DOT":0.00036085,"MEAN_MOTION_DDOT":0},{"OBJECT_NAME":"CYGFM03","OBJECT_ID":"2016-078H","EPOCH":"2026-03-04T13:44:08.606976","MEAN_MOTION":15.54499334,"ECCENTRICITY":0.00059798,"INCLINATION":34.9407,"RA_OF_ASC_NODE":205.1346,"ARG_OF_PERICENTER":263.8461,"MEAN_ANOMALY":96.1581,"EPHEMERIS_TYPE":0,"CLASSIFICATION_TYPE":"U","NORAD_CAT_ID":41891,"ELEMENT_SET_NO":999,"REV_AT_EPOCH":51265,"BSTAR":0.00054554512,"MEAN_MOTION_DOT":0.00037252,"MEAN_MOTION_DDOT":0},{"OBJECT_NAME":"FENGYUN 3D","OBJECT_ID":"2017-072A","EPOCH":"2026-03-04T15:10:35.382144","MEAN_MOTION":14.19712214,"ECCENTRICITY":0.00018325,"INCLINATION":99.0017,"RA_OF_ASC_NODE":36.2251,"ARG_OF_PERICENTER":23.5964,"MEAN_ANOMALY":336.5295,"EPHEMERIS_TYPE":0,"CLASSIFICATION_TYPE":"U","NORAD_CAT_ID":43010,"ELEMENT_SET_NO":999,"REV_AT_EPOCH":43015,"BSTAR":8.7425e-8,"MEAN_MOTION_DOT":-4.6e-7,"MEAN_MOTION_DDOT":0},{"OBJECT_NAME":"NOAA 20 (JPSS-1)","OBJECT_ID":"2017-073A","EPOCH":"2026-03-04T13:00:29.085984","MEAN_MOTION":14.19534477,"ECCENTRICITY":9.765e-5,"INCLINATION":98.7687,"RA_OF_ASC_NODE":3.9805,"ARG_OF_PERICENTER":144.4813,"MEAN_ANOMALY":215.6429,"EPHEMERIS_TYPE":0,"CLASSIFICATION_TYPE":"U","NORAD_CAT_ID":43013,"ELEMENT_SET_NO":999,"REV_AT_EPOCH":42962,"BSTAR":6.8982036e-5,"MEAN_MOTION_DOT":1.01e-6,"MEAN_MOTION_DDOT":0},{"OBJECT_NAME":"GOES 17","OBJECT_ID":"2018-022A","EPOCH":"2026-03-04T08:25:38.679168","MEAN_MOTION":1.00270359,"ECCENTRICITY":0.0002253,"INCLINATION":0.668,"RA_OF_ASC_NODE":87.5564,"ARG_OF_PERICENTER":221.55,"MEAN_ANOMALY":249.8945,"EPHEMERIS_TYPE":0,"CLASSIFICATION_TYPE":"U","NORAD_CAT_ID":43226,"ELEMENT_SET_NO":999,"REV_AT_EPOCH":2937,"BSTAR":0,"MEAN_MOTION_DOT":-1.94e-6,"MEAN_MOTION_DDOT":0},{"OBJECT_NAME":"FENGYUN 2H","OBJECT_ID":"2018-050A","EPOCH":"2026-03-04T16:15:27.570816","MEAN_MOTION":1.00272622,"ECCENTRICITY":0.00018951,"INCLINATION":2.7614,"RA_OF_ASC_NODE":80.3546,"ARG_OF_PERICENTER":174.936,"MEAN_ANOMALY":230.062,"EPHEMERIS_TYPE":0,"CLASSIFICATION_TYPE":"U","NORAD_CAT_ID":43491,"ELEMENT_SET_NO":999,"REV_AT_EPOCH":2839,"BSTAR":0,"MEAN_MOTION_DOT":-1.36e-6,"MEAN_MOTION_DDOT":0}]
